OBJECT_NAME,OBJECT_ID,EPOCH,MEAN_MOTION,ECCENTRICITY,INCLINATION,RA_OF_ASC_NODE,ARG_OF_PERICENTER,MEAN_ANOMALY,EPHEMERIS_TYPE,CLASSIFICATION_TYPE,NORAD_CAT_ID,ELEMENT_SET_NO,REV_AT_EPOCH,BSTAR,MEAN_MOTION_DOT,MEAN_MOTION_DDOT
CUBEBUG-2 (LO-74),2013-066AA,2026-07-04T06:40:01.392960,14.93908765,.00564678,97.8916,134.3300,332.5565,27.2675,0,U,39440,999,67954,.54420898E-3,.5912E-4,0
FUNCUBE-1 (AO-73),2013-066AE,2026-07-04T03:47:42.295488,15.09700275,.00373732,97.8284,156.9608,143.7626,216.6145,0,U,39444,999,68222,.54563342E-3,.8874E-4,0
UWE-3,2013-066AG,2026-07-04T03:00:48.152448,14.97148149,.00472649,97.8706,141.3160,263.1335,96.4508,0,U,39446,999,68011,.33626891E-3,.391E-4,0
UNISAT-6,2014-033C,2026-07-04T03:26:06.063072,14.88329213,.00451211,97.7902,337.5585,14.4000,345.8491,0,U,40012,999,64868,.31126203E-3,.2877E-4,0
DUCHIFAT-1,2014-033M,2026-07-03T16:42:34.319520,15.68277261,.00003219,98.0432,246.2208,267.7040,92.4182,0,U,40021,999,65833,.12811874E-2,.145426E-2,0
QB50P1,2014-033R,2026-07-04T06:49:24.104064,15.18529559,.00095928,98.0964,197.6317,157.2426,202.9233,0,U,40025,999,65562,.53185759E-3,.10923E-3,0
LILACSAT-2,2015-049K,2026-07-04T07:07:26.506848,15.52030897,.00073627,97.4621,222.7929,175.2032,184.9292,0,U,40908,999,59840,.39776972E-3,.23919E-3,0
FOX-1A (AO-85),2015-058D,2026-07-04T02:54:00.566496,14.91042511,.0131532,64.7734,226.3568,50.0240,311.2334,0,U,40967,999,11609,.26142953E-3,.2883E-4,0
CAS-2T & KS-1Q,2016-066G,2026-07-04T03:21:09.997920,14.44749429,.03427555,98.3816,260.6820,78.2177,285.7245,0,U,41847,999,50724,.24051281E-3,.1671E-4,0
RADFXSAT (FOX-1B),2017-073E,2026-07-04T01:47:07.747872,15.12944188,.01481297,97.4676,51.9443,270.3124,88.1134,0,U,43017,999,46794,.34432933E-3,.788E-4,0
DIWATA-2B,2018-084H,2026-07-04T05:47:49.009344,15.00525882,.00130886,98.1203,22.1941,117.4096,242.8460,0,U,43678,999,41877,.17075349E-3,.209E-4,0
ES'HAIL 2,2018-090A,2026-07-04T05:27:17.341056,1.00273695,.00022874,0.0141,51.7141,88.6768,249.4707,0,U,43700,999,2784,0,.156E-5,0
FOX-1CLIFF (AO-95),2018-099N,2026-07-04T02:48:11.931264,15.27076980,.00069323,97.4372,245.3036,287.7231,72.3251,0,U,43770,999,41580,.5816446E-3,.15402E-3,0
ITASAT,2018-099AE,2026-07-04T01:57:21.717504,15.19269626,.00107978,97.4012,236.2572,295.5578,64.4540,0,U,43786,999,41547,.40836429E-3,.856E-4,0
JY1SAT (JO-97),2018-099AX,2026-07-04T02:55:50.176128,15.34211411,.00058131,97.4120,248.0201,193.8667,166.2417,0,U,43803,999,41622,.69953957E-3,.2314E-3,0
UWE-4,2018-111E,2026-07-03T18:40:28.633152,15.47173559,.00044795,97.5844,113.9454,247.9507,112.1267,0,U,43880,999,41334,.73006953E-3,.37119E-3,0
TIANYAN 01,2019-093C,2026-07-04T06:38:20.222880,14.86545176,.00144444,97.7524,257.0916,35.7795,324.4386,0,U,44881,999,35395,.80074926E-4,.657E-5,0
RS-44 & BREEZE-KM R/B,2019-096E,2026-07-03T19:32:18.490560,12.79748962,.02185784,82.5235,328.6557,105.4674,257.0682,0,U,44909,999,30447,-.1716749E-5,.13E-6,0
SALSAT,2020-068K,2026-07-03T22:54:35.117568,15.30040776,.00081593,97.8853,189.0427,236.6445,123.4014,0,U,46495,999,31792,.32069255E-3,.9251E-4,0
XW-3 (CAS-9),2021-131B,2026-07-04T06:29:29.454720,14.41373323,.00051321,98.4989,277.5680,58.0020,302.1667,0,U,50466,999,23757,.16847331E-3,.502E-5,0
GREENCUBE (IO-117),2022-080E,2026-07-03T16:21:43.948224,6.42583230,.00089609,70.1436,292.5090,286.0340,73.9332,0,U,53109,999,9312,0,-.3E-7,0
UMKA 1 (RS40S),2023-091G,2026-07-04T04:47:46.714272,15.21021221,.00139583,97.5037,243.8328,64.9174,295.3508,0,U,57172,999,16659,.3534156E-3,.7793E-4,0
CUBESX-HSE 3 (RS42S),2023-091N,2026-07-03T23:11:44.903616,15.31646892,.00108793,97.5080,250.7696,41.2917,318.9145,0,U,57178,999,16699,.54024092E-3,.16476E-3,0
MONITOR-3 (RS58S),2023-091Q,2026-07-04T03:49:30.792288,15.28192372,.0012143,97.5071,248.7329,47.2071,313.0187,0,U,57180,999,16688,.49464694E-3,.13554E-3,0
MONITOR-4 (RS57S),2023-091S,2026-07-04T04:52:17.123808,15.28278388,.00121241,97.5064,248.7488,47.3732,312.8527,0,U,57182,999,16689,.52292813E-3,.14373E-3,0
MONITOR-2 (RS39S),2023-091U,2026-07-04T04:14:33.492192,15.19073458,.00123387,97.5059,243.3507,59.2950,300.9498,0,U,57184,999,16653,.31583246E-3,.6568E-4,0
SVYATOBOR 1 (RS60S),2023-091X,2026-07-04T03:58:12.967104,15.26911187,.00098818,97.5076,249.0787,41.9978,318.2017,0,U,57187,999,16690,.44409405E-3,.11685E-3,0
VIZARD-METEO (RS38S),2023-091Z,2026-07-04T03:32:37.094784,15.36578173,.00067378,97.5080,254.9782,22.5263,337.6276,0,U,57189,999,16729,.62642728E-3,.22338E-3,0
POLYTECH-UNIVERSE 3 (RS46S),2023-091AB,2026-07-04T04:50:25.901952,15.19282399,.00168607,97.5034,242.8796,73.0746,287.2336,0,U,57191,999,16653,.30297695E-3,.6346E-4,0
UTMN 2 (RS27S),2023-091AP,2026-07-04T04:06:03.568032,15.32478481,.0007924,97.5075,252.6310,30.1659,330.0038,0,U,57203,999,16714,.54865925E-3,.17162E-3,0
